0 YAOGAN 6
1 34839U 09021A   13282.09667227  .00003744  00000-0  19020-3 0  9672
2 34839 097.3162 001.4485 0000950 098.9031 352.3296 15.17475797247616
0 YAOGAN 6
1 34839U 09021A   13282.43325470  .00003750  00000-0  19046-3 0  9687
2 34839 097.3159 001.7730 0000877 095.9259 032.8557 15.17478548247667
0 YAOGAN 6
1 34839U 09021A   13282.76831318  .00003749  00000-0  19041-3 0  9690
2 34839 097.3159 002.0968 0000910 097.8974 060.1166 15.17481177247715
0 YAOGAN 6
1 34839U 09021A   13283.09066097  .00003865  00000-0  19619-3 0  9703
2 34839 097.3161 002.4082 0000913 100.5406 017.3234 15.17484795247768
0 YAOGAN 6
1 34839U 09021A   13283.42269762  .00004115  00000-0  20860-3 0  9714
2 34839 097.3157 002.7286 0000831 103.5930 027.0289 15.17489743247818
0 YAOGAN 6
1 34839U 09021A   13283.68991229  .00004279  00000-0  21676-3 0  9720
2 34839 097.3157 002.9872 0000829 103.0125 046.4683 15.17493188247854
0 YAOGAN 6
1 34839U 09021A   13284.07968903  .00004636  00000-0  23456-3 0  9733
2 34839 097.3157 003.3637 0000830 104.1612 013.3238 15.17499703247918
0 YAOGAN 6
1 34839U 09021A   13284.41175426  .00004815  00000-0  24342-3 0  9746
2 34839 097.3157 003.6850 0000927 099.6387 030.7699 15.17504255247960
0 YAOGAN 6
1 34839U 09021A   13285.45325378  .00005426  00000-0  27380-3 0  9771
2 34839 097.3156 004.6917 0000875 090.6106 325.9411 15.17519580248123
0 YAOGAN 6
1 34839U 09021A   13285.72792758  .00005578  00000-0  28131-3 0  9785
2 34839 097.3157 004.9570 0000915 094.3375 021.8244 15.17523625248161
0 YAOGAN 6
1 34839U 09021A   13286.11872103  .00005678  00000-0  28624-3 0  9791
2 34839 097.3156 005.3346 0000832 097.1579 352.5838 15.17528719248220
0 YAOGAN 6
1 34839U 09021A   13286.44319606  .00005762  00000-0  29039-3 0  9808
2 34839 097.3155 005.6480 0000836 099.3786 321.8770 15.17533074248278
0 YAOGAN 6
1 34839U 09021A   13287.10257269  .00005834  00000-0  29392-3 0  9822
2 34839 097.3154 006.2850 0000891 100.8566 320.3617 15.17541199248372
0 YAOGAN 6
1 34839U 09021A   13287.43232788  .00005852  00000-0  29481-3 0  9837
2 34839 097.3153 006.6036 0000888 102.1100 319.4622 15.17545237248424
0 YAOGAN 6
1 34839U 09021A   13287.77838194  .00005899  00000-0  29710-3 0  9844
2 34839 097.3153 006.9379 0000895 101.6875 049.2307 15.17549647248470
0 YAOGAN 6
1 34839U 09021A   13288.09759485  .00005823  00000-0  29329-3 0  9859
2 34839 097.3154 007.2466 0000941 102.5523 351.1680 15.17552852248521
0 YAOGAN 6
1 34839U 09021A   13288.44502315  .00005832  00000-0  29371-3 0  9864
2 34839 097.3154 007.5820 0000921 103.5340 087.0451 15.17557129248572
0 YAOGAN 6
1 34839U 09021A   13288.76093936  .00005854  00000-0  29477-3 0  9875
2 34839 097.3154 007.8873 0000948 103.9756 011.4197 15.17561041248629
0 YAOGAN 6
1 34839U 09021A   13289.09108921  .00005897  00000-0  29688-3 0  9885
2 34839 097.3153 008.2061 0000966 101.5422 016.3882 15.17565440248673
0 YAOGAN 6
1 34839U 09021A   13289.42310356  .00005982  00000-0  30103-3 0  9899
2 34839 097.3151 008.5265 0000914 102.9358 027.7180 15.17570298248726
0 YAOGAN 6
1 34839U 09021A   13289.75004237  .00006132  00000-0  30847-3 0  9908
2 34839 097.3153 008.8427 0000964 102.0890 013.5823 15.17575390248778
0 YAOGAN 6
1 34839U 09021A   13290.08004985  .00006254  00000-0  31449-3 0  9911
2 34839 097.3154 009.1616 0001015 101.3101 016.1389 15.17580494248821
0 YAOGAN 6
1 34839U 09021A   13290.41210654  .00006319  00000-0  31767-3 0  9926
2 34839 097.3153 009.4826 0000994 100.8300 029.5873 15.17585195248870
0 YAOGAN 6
1 34839U 09021A   13290.73880728  .00006402  00000-0  32175-3 0  9934
2 34839 097.3154 009.7984 0001018 099.2998 014.8486 15.17589943248929
0 YAOGAN 6
1 34839U 09021A   13291.12412469  .00006503  00000-0  32674-3 0  9948
2 34839 097.3159 010.1710 0001024 102.3408 315.5843 15.17595670248984
0 YAOGAN 6
1 34839U 09021A   13291.45352086  .00006597  00000-0  33134-3 0  9958
2 34839 097.3160 010.4890 0000969 105.4578 310.9299 15.17600791249039
0 YAOGAN 6
1 34839U 09021A   13291.72808703  .00006707  00000-0  33676-3 0  9965
2 34839 097.3161 010.7544 0000961 105.7628 009.7262 15.17605189249073
0 YAOGAN 6
1 34839U 09021A   13292.11890510  .00006748  00000-0  33875-3 0  9973
2 34839 097.3162 011.1319 0000956 106.8357 342.4818 15.17610791249130
0 YAOGAN 6
1 34839U 09021A   13292.44336200  .00006829  00000-0  34275-3 0  9986
2 34839 097.3162 011.4455 0000987 108.6351 312.1946 15.17615897249185
0 YAOGAN 6
1 34839U 09021A   13292.78897688  .00006917  00000-0  34705-3 0  9992
2 34839 097.3166 011.7800 0001003 106.9783 040.8897 15.17621306249234
0 YAOGAN 6
1 34839U 09021A   13293.10763454  .00006891  00000-0  34570-3 0    06
2 34839 097.3168 012.0881 0001030 110.1966 337.5261 15.17625481249283
0 YAOGAN 6
1 34839U 09021A   13293.77172199  .00006990  00000-0  35055-3 0    20
2 34839 097.3172 012.7299 0001114 109.3708 004.2597 15.17635461249385
0 YAOGAN 6
1 34839U 09021A   13294.09793978  .00006869  00000-0  34451-3 0    35
2 34839 097.3170 013.0452 0001228 113.6153 341.1598 15.17638984249439
0 YAOGAN 6
1 34839U 09021A   13294.44493056  .00006848  00000-0  34339-3 0    41
2 34839 097.3170 013.3805 0001254 113.4005 075.9500 15.17643636249487
0 YAOGAN 6
1 34839U 09021A   13294.76095977  .00006845  00000-0  34323-3 0    57
2 34839 097.3171 013.6858 0001262 114.7728 000.1085 15.17648002249530
0 YAOGAN 6
1 34839U 09021A   13295.09120524  .00006717  00000-0  33681-3 0    66
2 34839 097.3170 014.0048 0001397 115.8850 002.1476 15.17651489249586
0 YAOGAN 6
1 34839U 09021A   13295.41115891  .00006679  00000-0  33491-3 0    70
2 34839 097.3169 014.3143 0001404 115.2060 309.7927 15.17655581249639
0 YAOGAN 6
1 34839U 09021A   13295.74986517  .00006633  00000-0  33260-3 0    82
2 34839 097.3168 014.6415 0001457 117.1985 357.1602 15.17659693249688
0 YAOGAN 6
1 34839U 09021A   13296.08010685  .00006529  00000-0  32741-3 0    92
2 34839 097.3167 014.9604 0001502 117.8307 359.6736 15.17663275249738
